ONEWEB-0326             
1 49195U 21083K   24102.60323657 -.00002779  00000+0 -70823-2 0  9991
2 49195  87.9144 134.0330 0002820  85.8040 274.3414 13.18696911125013
ONEWEB-0327             
1 49196U 21083L   24102.57717339  .00000003  00000+0 -25951-4 0  9993
2 49196  87.9143 134.0498 0002271  85.3602 274.7789 13.18686379125035
ONEWEB-0328             
1 49197U 21083M   24102.55613665 -.00000007  00000+0 -54629-4 0  9998
2 49197  87.8888 118.8192 0002156  92.7033 267.4343 13.13471271126320
ONEWEB-0331             
1 49198U 21083N   24102.59692293 -.00000025  00000+0 -96843-4 0  9991
2 49198  87.9143 134.0270 0002215  93.2706 266.8680 13.18685269125024
ONEWEB-0333             
1 49199U 21083P   24102.55138090 -.00000058  00000+0 -19510-3 0  9999
2 49199  87.8900 118.8392 0001795  91.4318 268.7017 13.13468424126338
ONEWEB-0334             
1 49200U 21083Q   24102.45256844  .00000001  00000+0 -30075-4 0  9996
2 49200  87.9160  73.0185 0001175  72.5979 287.5282 13.20770722131623
ONEWEB-0335             
1 49201U 21083R   24102.54660747 -.00000378  00000+0 -10698-2 0  9993
2 49201  87.8901 118.8287 0002095  94.9479 265.1889 13.13469499126348
ONEWEB-0336             
1 49202U 21083S   24102.59265559 -.00000073  00000+0 -23415-3 0  9995
2 49202  87.8899 118.8165 0001856  88.0253 272.1089 13.13470096126343
ONEWEB-0337             
1 49203U 21083T   24102.60202518 -.00000221  00000+0 -63939-3 0  9994
2 49203  87.8901 118.8129 0002095  94.4770 265.6599 13.13471092126349
ONEWEB-0338             
1 49204U 21083U   24102.45888429 -.00000014  00000+0 -65990-4 0  9999
2 49204  87.9166  72.9967 0001568  92.2571 267.8742 13.20770455131649
ONEWEB-0339             
1 49205U 21083V   24102.53710416 -.00000297  00000+0 -84710-3 0  9992
2 49205  87.8897 118.8228 0002088  96.7008 263.4358 13.13470849126311
ONEWEB-0340             
1 49206U 21083W   24102.58271161 -.00000028  00000+0 -10261-3 0  9999
2 49206  87.9148 134.0240 0002202  92.6265 267.5120 13.18686085124983
ONEWEB-0341             
1 49207U 21083X   24102.59062090 -.00000063  00000+0 -19148-3 0  9992
2 49207  87.9144 134.0373 0002522 110.6516 249.4887 13.18685283125004
ONEWEB-0342             
1 49208U 21083Y   24102.46519607  .00000022  00000+0  21093-4 0  9996
2 49208  87.9156  73.0112 0001753  86.2277 273.9057 13.20773203131616
ONEWEB-0343             
1 49209U 21083Z   24102.58586065 -.00000056  00000+0 -17570-3 0  9995
2 49209  87.9139 134.0493 0002364 110.3900 249.7486 13.18687097125059
ONEWEB-0344             
1 49210U 21083AA  24102.57994947  .00000241  00000+0  62567-3 0  9998
2 49210  87.8901 118.8294 0002199  89.4796 270.6585 13.13470872126321
ONEWEB-0345             
1 49211U 21083AB  24102.59740384 -.00000150  00000+0 -44523-3 0  9998
2 49211  87.8897 118.8027 0002529  96.1397 264.0020 13.13470822126336
ONEWEB-0346             
1 49212U 21083AC  24102.59535837 -.00000038  00000+0 -12882-3 0  9992
2 49212  87.9144 134.0448 0002401  87.1994 272.9413 13.18686005124993
ONEWEB-0348             
1 49213U 21083AD  24102.45572812  .00000026  00000+0  31182-4 0  9992
2 49213  87.9167  72.9791 0002691  85.8745 274.2696 13.20769502131645
ONEWEB-0350             
1 49214U 21083AE  24102.60693749 -.00000344  00000+0 -97769-3 0  9990
2 49214  87.8898 118.7923 0002365  95.9406 264.1992 13.13470647126367
ONEWEB-0351             
1 49215U 21083AF  24102.44927503 -.00000047  00000+0 -14775-3 0  9997
2 49215  87.9162  72.9825 0001012  94.3176 265.8073 13.20771275131600
ONEWEB-0352             
1 49216U 21083AG  24102.58789190  .00000099  00000+0  23683-3 0  9994
2 49216  87.8900 118.8253 0001744  98.1672 261.9654 13.13470336126455
ONEWEB-0354             
1 49217U 21083AH  24102.47466331  .00000169  00000+0  38399-3 0  9990
2 49217  87.9165  72.9600 0002216  93.1177 267.0210 13.20770003131640
ONEWEB-0355             
1 49218U 21083AJ  24102.54185355 -.00000463  00000+0 -13034-2 0  9990
2 49218  87.8899 118.8340 0002007  97.4351 262.7006 13.13469758126322
ONEWEB-0357             
1 49219U 21083AK  24102.47149169  .00000021  00000+0  19937-4 0  9994
2 49219  87.9162  72.9812 0001935  92.3392 267.7962 13.20771491131644
ONEWEB-0332             
1 49279U 21090A   24102.49379191  .00000202  00000+0  50978-3 0  9990
2 49279  87.8905  88.2593 0001577  82.5139 277.6169 13.14503392122917
ONEWEB-0347             
1 49280U 21090B   24102.38627972  .00000061  00000+0  11886-3 0  9991
2 49280  87.9164  72.9953 0001526  77.8445 282.2860 13.20769542125863
ONEWEB-0349             
1 49281U 21090C   24102.41784333  .00000111  00000+0  24214-3 0  9996
2 49281  87.9166  72.9878 0002256  87.5579 272.5813 13.20770446124650
ONEWEB-0353             
1 49282U 21090D   24102.48585102  .00000272  00000+0  69810-3 0  9996
2 49282  87.8904  88.2453 0001618  84.0939 276.0375 13.14504725122919
ONEWEB-0356             
1 49283U 21090E   24102.41627283  .00000348  00000+0  82332-3 0  9995
2 49283  87.9164  72.9833 0002505  64.2992 295.8400 13.20772628124653
ONEWEB-0358             
1 49284U 21090F   24102.44625796 -.00000005  00000+0 -43046-4 0  9998
2 49284  87.9166  72.9631 0002292  82.8646 277.2748 13.20773240125388
ONEWEB-0359             
1 49285U 21090G   24102.44309787  .00000011  00000+0 -54661-5 0  9990
2 49285  87.9164  72.9831 0002377  94.4869 265.6536 13.20773179125364
ONEWEB-0360             
1 49286U 21090H   24102.43363438  .00000091  00000+0  19229-3 0  9999
2 49286  87.9164  72.9896 0002032  87.4422 272.6944 13.20770689124678
ONEWEB-0361             
1 49287U 21090J   24102.41469397  .00000087  00000+0  18221-3 0  9995
2 49287  87.9165  72.9878 0002004  80.9510 279.1850 13.20769300125122
ONEWEB-0362             
1 49288U 21090K   24102.49436448 -.00000391  00000+0 -10099-2 0  9999
2 49288  87.9099 103.5573 0001904 100.9644 259.1703 13.19726206121836
ONEWEB-0363             
1 49289U 21090L   24102.43047887  .00000034  00000+0  51885-4 0  9991
2 49289  87.9166  72.9798 0002291  76.7543 283.3846 13.20770226125135
ONEWEB-0364             
1 49290U 21090M   24102.39259319  .00000066  00000+0  13114-3 0  9990
2 49290  87.9166  73.0111 0001784  81.4636 278.6699 13.20769487126265
ONEWEB-0365             
1 49291U 21090N   24102.50385181 -.00000003  00000+0 -40565-4 0  9995
2 49291  87.9095 103.5402 0001888  92.9800 267.1549 13.19723891121342
ONEWEB-0366             
1 49292U 21090P   24102.48268634  .00000253  00000+0  64855-3 0  9998
2 49292  87.8904  88.2545 0001817  81.7521 278.3815 13.14504352122891
ONEWEB-0367             
1 49293U 21090Q   24102.42889702  .00000012  00000+0 -34553-5 0  9996
2 49293  87.9165  72.9745 0001765  79.4949 280.6383 13.20770724124651
ONEWEB-0368             
1 49294U 21090R   24102.40206264  .00000071  00000+0  14391-3 0  9991
2 49294  87.9166  73.0094 0001782  58.2207 301.9100 13.20770128125803
ONEWEB-0369             
1 49295U 21090S   24102.49912531  .00000023  00000+0  23851-4 0  9991
2 49295  87.9101 103.5395 0001779  88.7643 271.3693 13.19725728121339
ONEWEB-0370             
1 49296U 21090T   24102.43836407  .00000075  00000+0  15171-3 0  9995
2 49296  87.9164  72.9767 0001991  82.7900 277.3460 13.20770193124695
ONEWEB-0371             
1 49297U 21090U   24102.50701758  .00000027  00000+0  34279-4 0  9992
2 49297  87.9098 103.5278 0001827  92.9864 267.1478 13.19725996121377
ONEWEB-0372             
1 49298U 21090V   24102.42717931  .00000047  00000+0  83776-4 0  9992
2 49298  87.9166  72.9871 0001794  85.1410 274.9928 13.20771107124664
ONEWEB-0373             
1 49299U 21090W   24102.60567379  .00000080  00000+0  16372-3 0  9996
2 49299  87.9166  72.9685 0001964  73.8184 286.3165 13.20770480125876
ONEWEB-0374             
1 49300U 21090X   24102.46999210  .00000048  00000+0  94627-4 0  9990
2 49300  87.8903  88.2430 0001878  82.7331 277.4013 13.14504446122894
ONEWEB-0375             
1 49301U 21090Y   24102.44152615  .00000022  00000+0  22815-4 0  9991
2 49301  87.9165  72.9770 0002586  74.3497 285.7921 13.20770346125355
ONEWEB-0376             
1 49302U 21090Z   24102.50542011 -.00000064  00000+0 -19256-3 0  9994
2 49302  87.9094 103.5409 0001656  92.0062 268.1261 13.19725403121371
ONEWEB-0377             
1 49303U 21090AA  24102.42746135  .00000081  00000+0  16794-3 0  9990
2 49303  87.9166  72.9713 0002199  89.8120 270.3265 13.20770744125341
ONEWEB-0378             
1 49304U 21090AB  24102.44953413 -.00000023  00000+0 -88367-4 0  9996
2 49304  87.9168  72.9685 0002036  79.8749 280.2614 13.20772549124610
ONEWEB-0379             
1 49305U 21090AC  24102.46525358  .00000033  00000+0  54234-4 0  9997
2 49305  87.8901  88.2465 0001838  83.7389 276.3950 13.14503856122897
ONEWEB-0380             
1 49306U 21090AD  24102.50228323  .00000054  00000+0  10373-3 0  9993
2 49306  87.9098 103.5418 0002054  91.2954 268.8414 13.19725555121345
ONEWEB-0381             
1 49307U 21090AE  24102.57567638  .00000038  00000+0  61172-4 0  9992
2 49307  87.9167  72.9482 0002100  84.9757 275.1616 13.20769442124674
ONEWEB-0382             
1 49308U 21090AF  24102.41153720  .00000134  00000+0  29868-3 0  9991
2 49308  87.9165  72.9786 0002199  72.0217 288.1156 13.20769698124640
ONEWEB-0383             
1 49309U 21090AG  24102.45889502 -.00000085  00000+0 -26489-3 0  9993
2 49309  87.8900  88.2376 0001884  78.9727 281.1615 13.14504575122929
ONEWEB-0384             
1 49310U 21090AH  24102.40838011  .00000079  00000+0  16343-3 0  9998
2 49310  87.9167  72.9895 0002293  70.5681 289.5700 13.20775810124653
ONEWEB-0385             
1 49311U 21090AJ  24102.32788936  .00000120  00000+0  26306-3 0  9997
2 49311  87.9166  73.0068 0002229  76.8346 283.3036 13.20769474124612
ONEWEB-0386             
1 49312U 21090AK  24102.42100403  .00000169  00000+0  38280-3 0  9993
2 49312  87.9163  72.9878 0002002  75.4910 284.6445 13.20770182124647
